TRANSPORTER-15 OBJECT CJ
1 66746U 25276CJ  26077.93122709  .00011915  00000+0  53355-3 0  9996
2 66746  97.3693 152.6744 0010765 267.6060  92.3943 15.21360384 16733
UMBRA-11                
1 66748U 25276CL  26077.95547992  .00016986  00000+0  73009-3 0  9996
2 66748  97.4265 153.3891 0000968 262.2891  97.8236 15.22730001 16743
PIAST-S1                
1 66749U 25276CM  26077.94341141  .00005136  00000+0  24699-3 0  9990
2 66749  97.4255 153.0911 0000835 289.9006  70.2139 15.19232254 16728
TRANSPORTER-15 OBJECT CN
1 66750U 25276CN  26077.94061899  .00004041  00000+0  19590-3 0  9999
2 66750  97.4292 153.1531 0000697 201.6376 158.4830 15.19077991 16729
ICEYE-X58               
1 66751U 25276CP  26077.63211607  .00002960  00000+0  14592-3 0  9995
2 66751  97.4268 152.7660 0001747 304.2925  55.8144 15.18706437 16673
ICEYE SAR-1             
1 66752U 25276CQ  26077.83335648 -.00057364  00000+0 -34388-2 0  9994
2 66752  97.4270 152.6383 0002090 351.6637 338.2513 15.11234524  5836
ICEYE SAR-2             
1 66753U 25276CR  26076.93968423  .00004968  00000+0  24987-3 0  9993
2 66753  97.4278 152.0014 0002347  15.7622 344.3684 15.17681421 16564
ICEYE-X61               
1 66754U 25276CS  26077.62791042  .00006908  00000+0  33386-3 0  9991
2 66754  97.4263 152.7591 0001686 293.2775  66.8282 15.18940907 16673
ICEYE-X62               
1 66755U 25276CT  26077.63622357  .00002082  00000+0  12428-3 0  9998
2 66755  97.4260 152.5987 0001436   0.7839 359.3394 15.12188785 16668
MAUVE                   
1 66756U 25276CU  26077.93916937  .00006159  00000+0  29433-3 0  9995
2 66756  97.4268 153.1181 0000437 205.7620 154.3593 15.19376519 16727
PIAST-S2                
1 66757U 25276CV  26077.92833744  .00004792  00000+0  22921-3 0  9995
2 66757  97.4278 153.1465 0000377 183.5836 176.5397 15.19453690 16723
PIAST-M                 
1 66758U 25276CW  26077.93260103  .00004587  00000+0  22049-3 0  9993
2 66758  97.4248 153.0979 0000537 114.3272 245.8019 15.19306463 16720
TRANSPORTER-15 OBJECT CX
1 66759U 25276CX  26077.65037974  .00004981  00000+0  23603-3 0  9996
2 66759  97.4235 152.8435 0000735 152.5528 207.5746 15.19765303 16688
TRANSPORTER-15 OBJECT CY
1 66760U 25276CY  26077.92528175  .00004062  00000+0  19522-3 0  9991
2 66760  97.4252 153.1132 0001158 117.8726 242.2627 15.19381267 16723
TRANSPORTER-15 OBJECT CZ
1 66761U 25276CZ  26077.94378585  .00007651  00000+0  35169-3 0  9994
2 66761  97.4250 153.2381 0001123 139.2472 220.8847 15.20639923 16731
HYDROGNSS-1             
1 66762U 25276DA  26077.73779490  .00003782  00000+0  19146-3 0  9990
2 66762  97.4264 152.7697 0001253 256.6098 103.4996 15.17601185 16683
HYDROGNSS-2             
1 66763U 25276DB  26075.66670139  .00043470  00000+0  22011-2 0  9993
2 66763  97.4271 150.7364 0004913 241.4010 307.4696 15.16845323  1302
NAHLA                   
1 66764U 25276DC  26077.64551939  .00002585  00000+0  12905-3 0  9994
2 66764  97.4261 152.7361 0001254 305.8328  54.2789 15.18382814 16672
TRANSPORTER-15 OBJECT DD
1 66765U 25276DD  26077.90134674  .00005928  00000+0  26611-3 0  9990
2 66765  97.4274 153.3271 0001562 131.8068 228.3302 15.21552349 16732
T.MICROSAT-1            
1 66766U 25276DE  26077.64196634  .00004786  00000+0  22698-3 0  9998
2 66766  97.4223 152.8327 0002076 115.2909 244.8542 15.19754577 16681
ACCENTURE-1             
1 66767U 25276DF  26077.92207128  .00002923  00000+0  14182-3 0  9991
2 66767  97.4224 153.0772 0002168 109.1943 250.9526 15.19266998 16722
LEMUR-2-TEODOR          
1 66768U 25276DG  26077.43172876  .00005063  00000+0  23831-3 0  9998
2 66768  97.4212 152.6450 0002333 104.5164 255.6330 15.19985166 16658
SPEQTRE                 
1 66769U 25276DH  26077.64590178  .00004161  00000+0  19860-3 0  9996
2 66769  97.4270 152.9021 0002059 135.6277 224.5123 15.19604664 16684
LILIUM-3                
1 66770U 25276DJ  26077.92743813  .00003979  00000+0  19338-3 0  9991
2 66770  97.4306 153.1851 0002031 159.6060 200.5256 15.19005697 16723
GYEONGGISAT-1           
1 66771U 25276DK  26077.50894654  .00003958  00000+0  18864-3 0  9996
2 66771  97.4298 152.8168 0002119 148.8254 211.3107 15.19688889 16661
IHI-SAT2                
1 66772U 25276DL  26077.94490091  .00005934  00000+0  27661-3 0  9993
2 66772  97.4292 153.2932 0002496 137.4809 222.6620 15.20250501 16739
TRANSPORTER-15 OBJECT DM
1 66773U 25276DM  26077.63910131  .00004018  00000+0  19154-3 0  9992
2 66773  97.4283 152.9296 0002546 135.4486 224.6954 15.19664304 16688
GENA-OT                 
1 66774U 25276DN  26077.42996086  .00005252  00000+0  24695-3 0  9990
2 66774  97.4271 152.7307 0002531 133.2456 226.8991 15.20001762 16651
PHI 1                   
1 66775U 25276DP  26077.68835618  .00006148  00000+0  28762-3 0  9996
2 66775  97.4195 152.8902 0003166 105.2488 254.9097 15.20111718 16694
LEMUR-2-LAILA           
1 66776U 25276DQ  26077.48425046  .00005385  00000+0  25176-3 0  9993
2 66776  97.4236 152.7603 0002710 118.8953 241.2554 15.20192605 16667
LUNA-1                  
1 66777U 25276DR  26077.65116300  .00007704  00000+0  35062-3 0  9995
2 66777  97.4321 153.1182 0002769 150.4465 209.6928 15.20979819 16690
FORESAIL-1 PRIME        
1 66778U 25276DS  26077.90254454  .00004607  00000+0  23113-3 0  9990
2 66778  97.4263 152.8601 0003833  75.7962 284.3698 15.17800665 16706
FOSSASAT-2E22           
1 66779U 25276DU  26077.63072358  .00008577  00000+0  42705-3 0  9990
2 66779  97.4242 152.5706 0007192  95.1818 265.0236 15.17805137 16663
FOSSASAT-2E24           
1 66780U 25276DV  26077.93752586  .00003431  00000+0  17082-3 0  9997
2 66780  97.4238 152.9207 0006277  88.6451 271.5502 15.18241843 16716
LACUNASAT-4D            
1 66781U 25276DW  26077.94362442  .00007326  00000+0  61257-3 0  9997
2 66781  97.5307 151.7344 0011617  87.5578 272.6975 14.98725728  9103
STARLINK-35867          
1 66791U 25278A   26077.64309954  .00025531  00000+0  93361-3 0  9995
2 66791  42.9959  64.2184 0001963 293.8270  66.2376 15.27596695 16578
STARLINK-35990          
1 66792U 25278B   26077.65966036  .00016394  00000+0  60394-3 0  9994
2 66792  43.0004  63.4714 0000545 289.7107  70.3685 15.27579455 16585
STARLINK-36051          
1 66793U 25278C   26077.94818792  .00020432  00000+0  74936-3 0  9997
2 66793  43.0005  62.1985 0000670 234.5153 125.5636 15.27606165 16624
STARLINK-36062          
1 66794U 25278D   26077.43152011  .00020150  00000+0  73952-3 0  9991
2 66794  43.0000  65.2053 0001583 222.9906 137.0822 15.27589680 16549
STARLINK-36047          
1 66795U 25278E   26077.68536149  .00026874  00000+0  98223-3 0  9994
2 66795  43.0013  63.6706 0000966 236.3953 123.6806 15.27590864 16589
STARLINK-35964          
1 66796U 25278F   26077.94992316  .00033372  00000+0  12159-2 0  9990
2 66796  42.9937  47.1678 0000190  39.5001 320.5865 15.27603122 16792
STARLINK-36099          
1 66797U 25278G   26077.67764720  .00016313  00000+0  60082-3 0  9992
2 66797  43.0035  63.6111 0001819 259.8433 100.2213 15.27589220 16583
STARLINK-36041          
1 66798U 25278H   26077.43409161  .00017757  00000+0  65292-3 0  9993
2 66798  43.0008  65.2210 0001150 251.6984 108.3743 15.27596143 16546
STARLINK-36044          
1 66799U 25278J   26077.65708225  .00023843  00000+0  87316-3 0  9995
2 66799  42.9957  63.4467 0001964 261.5935  98.4694 15.27579546 16587
STARLINK-35996          
1 66800U 25278K   26077.65194053  .00028649  00000+0  10451-2 0  9990
2 66800  42.9986  63.4095 0003062 266.2064  93.8437 15.27623440 16582
STARLINK-36080          
1 66801U 25278L   26076.66098583  .00018219  00000+0  66910-3 0  9996
2 66801  42.9949  69.7418 0004642 289.7378  70.2973 15.27615720 16422
STARLINK-35604          
1 66802U 25278M   26077.95204953  .00027270  00000+0  99657-3 0  9991
2 66802  43.0012  62.2280 0000581 239.5046 120.5748 15.27589332 16624
STARLINK-35565          
1 66803U 25278N   26077.43537187  .00016414  00000+0  60433-3 0  9991
2 66803  42.9992  65.2370 0002664 236.4359 123.6239 15.27597397 16540
STARLINK-36038          
1 66804U 25278P   26077.66351729  .00027712  00000+0  10129-2 0  9992
2 66804  43.0017  63.5041 0000431 287.7540  72.3264 15.27575537 16582
STARLINK-36049          
1 66805U 25278Q   26076.98024185  .00016293  00000+0  60007-3 0  9993
2 66805  42.9982  67.8389 0000997 239.0459 121.0295 15.27591367 16473
STARLINK-36069          
1 66806U 25278R   26077.18025614  .00023638  00000+0  86473-3 0  9991
2 66806  42.9982  66.7587 0001492 270.8254  89.2427 15.27618799 16504
STARLINK-36000          
1 66807U 25278S   26077.66736843  .00026281  00000+0  96104-3 0  9997
2 66807  43.0032  63.5316 0000749 284.7622  75.3147 15.27584464 16589
STARLINK-36071          
1 66808U 25278T   26077.64552605  .00023102  00000+0  84681-3 0  9994
2 66808  42.9983  63.3645 0001499  43.6940 316.4030 15.27564412 16585
STARLINK-35979          
1 66809U 25278U   26076.26613134  .00013677  00000+0  50548-3 0  9998
2 66809  42.9980  71.9352 0001454 267.4122  92.6563 15.27588869 16364
STARLINK-36046          
1 66810U 25278V   26077.88536950  .00018688  00000+0  68658-3 0  9997
2 66810  42.9999  62.5861 0001045 246.5353 113.5389 15.27596078 16615
STARLINK-36045          
1 66811U 25278W   26077.68150097  .00020767  00000+0  76179-3 0  9998
2 66811  43.0040  63.6355 0001851 252.7354 107.3295 15.27590675 16580
STARLINK-36054          
1 66812U 25278X   26077.67893062  .00022691  00000+0  83131-3 0  9998
2 66812  43.0068  63.6132 0001651 249.7717 110.2957 15.27590230 16586
STARLINK-36042          
1 66813U 25278Y   26077.65324732  .00017818  00000+0  65513-3 0  9999
2 66813  42.9988  63.4145 0001473 283.2055  76.8632 15.27596634 16589
STARLINK-35984          
1 66814U 25278Z   26077.26348275  .00025469  00000+0  93156-3 0  9990
2 66814  42.9978  65.6517 0000997 276.4058  83.6680 15.27590172 16527
